#aV2007  5 12  0  0   .00000000      96 DD+AD WGS84 FIT  NGA
## 1426 518400.00000000   900.00000000 54232  .0000000000000
+   30     1  2  3  4  5  6  7  8  9 10 11 12 13 14 16 17 18
+         19 20 21 22 23 24 25 26 27 28 29 30 31  0  0  0  0
+          0  0  0  0  0  0  0  0  0  0  0  0  0  0  0  0  0
+          0  0  0  0  0  0  0  0  0  0  0  0  0  0  0  0  0
+          0  0  0  0  0  0  0  0  0  0  0  0  0  0  0  0  0
++         0  0  0  0  0  0  0  0  0  0  0  0  0  0  0  0  0
++         0  0  0  0  0  0  0  0  0  0  0  0  0  0  0  0  0
++         0  0  0  0  0  0  0  0  0  0  0  0  0  0  0  0  0
++         0  0  0  0  0  0  0  0  0  0  0  0  0  0  0  0  0
++         0  0  0  0  0  0  0  0  0  0  0  0  0  0  0  0  0
%c cc cc ccc ccc cccc cccc cccc cccc ccccc ccccc ccccc ccccc
%c cc cc ccc ccc cccc cccc cccc cccc ccccc ccccc ccccc ccccc
%f  0.0000000  0.000000000  0.00000000000  0.000000000000000
%f  0.0000000  0.000000000  0.00000000000  0.000000000000000
%i    0    0    0    0      0      0      0      0         0
%i    0    0    0    0      0      0      0      0         0
/*      NGA, ST. LOUIS,MO.                                  
/*   EPHEMERIS COMPUTED FROM  3 DAYS OF DATA                
/* CCCCCCCCCCCCCCCCCCCCCCCCCCCCCCCCCCCCCCCCCCCCCCCCCCCCCCCCC
/* CCCCCCCCCCCCCCCCCCCCCCCCCCCCCCCCCCCCCCCCCCCCCCCCCCCCCCCCC
*  2007  5 12 10 45   .00000000                                                 
P  1  -1498.200768  15574.008432  21655.479697    126.962909                    
V  1 -25582.552536   8479.090183  -8005.361052       .029686                    
P  2  -8995.407027 -20232.246574  14654.135695    105.919593                    
V  2  16367.584696   9737.792115  22869.443560       .028847                    
P  3   3781.793675  15927.929963 -21086.169931     56.198787                    
V  3 -23788.816138  11660.742081   4922.373064       .056561                    
P  4   3965.689077 -15958.922465  20723.832705     10.959922                    
V  4  21411.238896  15810.279214   8405.626097      -.000655                    
P  5 -14788.903228  -7060.265710  20693.792587      7.281873                    
V  5   2167.297701 -26788.554829  -7353.915095      -.142550                    
P  6 -24991.009023   4871.989368   7837.489333    179.375724                    
V  6   7498.338852  -7041.871362  28947.268045       .141744                    
P  7 -24918.684670   8358.126335   4421.965723    306.759362                    
V  7   3190.871059  -5369.308076  30461.392990      -.168458                    
P  8  13780.943002  -7395.044634 -21643.317456   -107.033520                    
V  8  20418.854009  17804.400517   6527.587225      -.014253                    
P  9 -21582.267657 -15684.683261   -204.200497     69.954041                    
V  9   1075.626671  -2273.485192 -31722.851607       .016303                    
P 10  -1898.927500 -24927.456461  -8589.732951    101.759959                    
V 10   4300.098966 -10271.484218  29563.203155       .005448                    
P 11  23897.099413  11890.505456   1058.212076     15.718105                    
V 11   -894.912977   4769.361256 -29993.125784       .009711                    
P 12 -12799.838373 -11456.233716  20381.798352    -44.752796                    
V 12   4423.948387 -25253.031384 -11420.696588      -.005296                    
P 13  25384.000215  -5815.358961   4997.509804    171.617098                    
V 13  -5474.211673   3858.957375  31682.940426       .034761                    
P 14 -17305.581043  15607.607237  12748.745450     19.802607                    
V 14 -15561.300169   4221.566160 -26531.845898       .016663                    
P 16  -2292.377968  26258.261601  -2440.706964    147.178629                    
V 16  -3318.311487   2747.204385  31702.910634       .029863                    
P 17  19045.962060 -15319.155610  10243.927282     68.507715                    
V 17  13074.597037  -2401.834021 -28063.671881      -.014226                    
P 18 -15396.208331  10371.186097 -18730.454603   -250.037053                    
V 18   2603.812238 -24133.631885 -15722.959328       .007788                    
P 19  13072.443726  10764.887543 -20388.341583     33.228686                    
V 19 -24460.816127   9143.149527 -10692.013502       .034024                    
P 20  13204.883878  10712.180018  20307.188464    -24.531189                    
V 20  -4296.214563  25707.514852 -10672.507116      -.003940                    
P 21 -19861.117709    387.410336 -17778.549467     76.728659                    
V 21 -16378.350416 -15750.129528  17262.295370       .004774                    
P 22 -11747.467894  21201.613406 -10673.305724    181.560197                    
V 22   -188.984904 -14085.313732 -27411.268388       .018799                    
P 23  22305.740444   1595.352233  14400.052673    165.848954                    
V 23 -16320.353711   8532.654274  23996.902869       .025530                    
P 24 -22260.097600 -10752.500604  -9102.731062     99.578470                    
V 24  -7101.141902 -10051.765109  28880.670212       .027239                    
P 25  23481.893587  11270.050952  -4418.724898    245.826784                    
V 25   3559.176751   5799.975396  31155.879430       .269427                    
P 26 -10584.613445 -11439.844621 -22030.942303   -189.863234                    
V 26  25097.217744  -9258.606916  -6842.367216      -.206897                    
P 27  20139.863679   -349.466215 -16791.561986    110.251423                    
V 27  17559.812437  14135.343658  19778.890119       .021556                    
P 28  12770.614022 -18242.459482 -13873.332023      1.276944                    
V 28   -475.355643  18487.427269 -24504.390255      -.007644                    
P 29  -5815.805635 -13288.057591 -22044.570006      2.636356                    
V 29  26373.454949 -10575.279161   -219.484358       .003076                    
P 30 -15492.286518    883.686382  21241.293503     33.575639                    
V 30   2406.913680 -27660.354226   2978.460438       .010713                    
P 31  -2327.224375  16533.692557  20839.367035     19.706267                    
V 31 -21129.042504 -15210.950936   9872.344322      -.004882                    
EOF
